GPS BIIR-2  (PRN 13)    
1 24876U 97035A   17300.19214074 -.00000016  00000-0  00000+0 0  9997
2 24876  55.5241 221.9197 0033376  97.9679 262.4391  2.00565246148472
GPS BIIR-3  (PRN 11)    
1 25933U 99055A   17300.28879784 -.00000016  00000-0  00000+0 0  9991
2 25933  51.7264  71.8582 0167863  98.1198 259.3506  2.00555627132296
GPS BIIR-4  (PRN 20)    
1 26360U 00025A   17300.37507061  .00000039  00000-0  00000+0 0  9995
2 26360  53.1403 149.3759 0044053  97.7263  64.7347  2.00554156127990
GPS BIIR-5  (PRN 28)    
1 26407U 00040A   17300.50417282 -.00000054  00000-0  00000+0 0  9992
2 26407  56.5864 339.9881 0201869 270.8374 268.7821  2.00565615126668
GPS BIIR-6  (PRN 14)    
1 26605U 00071A   17300.55608549 -.00000018  00000-0  00000+0 0  9999
2 26605  55.0958 219.5862 0095096 248.8526 235.7752  2.00559460124278
GPS BIIR-7  (PRN 18)    
1 26690U 01004A   17300.38354285  .00000036  00000-0  00000+0 0  9995
2 26690  53.0600 152.3050 0183507 258.3962 215.0998  2.00567505122676
GPS BIIR-8  (PRN 16)    
1 27663U 03005A   17299.20956581 -.00000062  00000-0  00000+0 0  9994
2 27663  56.6541 339.7853 0092316  24.8384  52.8913  2.00551414108000
GPS BIIR-9  (PRN 21)    
1 27704U 03010A   17300.58631611  .00000028  00000-0  00000+0 0  9995
2 27704  53.9415  92.7273 0242640 266.5367  53.5422  2.00574274106832
GPS BIIR-10 (PRN 22)    
1 28129U 03058A   17298.89083505  .00000022  00000-0  00000+0 0  9996
2 28129  52.9508 152.3432 0073891 264.8173  94.4199  2.00560957101497
GPS BIIR-11 (PRN 19)    
1 28190U 04009A   17300.46437299 -.00000064  00000-0  00000+0 0  9998
2 28190  56.0722  40.6891 0096964  61.6925 359.0561  2.00562855 99702
GPS BIIR-12 (PRN 23)    
1 28361U 04023A   17300.58806686 -.00000018  00000-0  00000+0 0  9996
2 28361  54.0865 214.5628 0120088 222.3737 197.7856  2.00564880 97791
GPS BIIR-13 (PRN 02)    
1 28474U 04045A   17300.50319046  .00000028  00000-0  00000+0 0  9996
2 28474  54.3171  92.2539 0174210 248.7732 113.9232  2.00570993 95152
GPS BIIRM-1 (PRN 17)    
1 28874U 05038A   17300.43443062 -.00000067  00000-0  00000+0 0  9995
2 28874  56.2232  37.9706 0122778 255.0509 165.7884  2.00560421 88551
GPS BIIRM-2 (PRN 31)    
1 29486U 06042A   17300.55848826  .00000001  00000-0  00000+0 0  9998
2 29486  55.3189 276.9895 0086810 345.6983  80.6476  2.00547934 81272
GPS BIIRM-3 (PRN 12)    
1 29601U 06052A   17300.40548230 -.00000052  00000-0  00000+0 0  9995
2 29601  56.6275 338.6565 0063578  50.9086 309.7119  2.00561284 80189
GPS BIIRM-4 (PRN 15)    
1 32260U 07047A   17299.22474676 -.00000015  00000-0  00000+0 0  9993
2 32260  53.2121 210.8502 0096800  34.5702 326.1012  2.00567454 73548
GPS BIIRM-5 (PRN 29)    
1 32384U 07062A   17300.63106348 -.00000066  00000-0  00000-0 0  9990
2 32384  56.2910  38.5536 0002726  18.4786  56.9011  2.00578808 72285
GPS BIIRM-6 (PRN 07)    
1 32711U 08012A   17300.13222077  .00000000  00000-0  00000+0 0  9999
2 32711  55.0492 276.3416 0112236 214.8693 144.3860  2.00558741 70474
GPS BIIRM-8 (PRN 05)    
1 35752U 09043A   17300.39503337  .00000037  00000-0  00000+0 0  9991
2 35752  54.2705 154.1567 0051296  33.0219 182.4203  2.00574293 60061
GPS BIIF-1  (PRN 25)    
1 36585U 10022A   17300.49213750 -.00000049  00000-0  00000+0 0  9997
2 36585  55.9285 335.3787 0064483  45.1807 347.6849  2.00556763 54317
GPS BIIF-2  (PRN 01)    
1 37753U 11036A   17300.36146698  .00000036  00000-0  00000+0 0  9998
2 37753  55.5205  95.5042 0069661  34.7146 349.1075  2.00563167 45993
GPS BIIF-3  (PRN 24)    
1 38833U 12053A   17300.31764682 -.00000003  00000-0  00000+0 0  9997
2 38833  54.0778 273.1211 0060558  25.0122 335.2734  2.00563670 37063
GPS BIIF-4  (PRN 27)    
1 39166U 13023A   17300.17078643 -.00000072  00000-0  00000+0 0  9990
2 39166  55.9270  34.9530 0049051  19.3155 340.8932  2.00563998 32592
GPS BIIF-5  (PRN 30)    
1 39533U 14008A   17299.17533346 -.00000005  00000-0  00000+0 0  9991
2 39533  54.2296 278.4837 0030651 189.4620 170.4744  2.00570478 26937
GPS BIIF-6  (PRN 06)    
1 39741U 14026A   17300.45578167  .00000036  00000-0  00000+0 0  9999
2 39741  55.5063  95.0220 0008049 284.0155  75.9056  2.00552178 25249
GPS BIIF-7  (PRN 09)    
1 40105U 14045A   17300.54304180 -.00000018  00000-0  00000+0 0  9999
2 40105  54.6110 214.5429 0007142 105.7948 254.3231  2.00554536 23694
GPS BIIF-8  (PRN 03)    
1 40294U 14068A   17299.91856462  .00000033  00000-0  00000+0 0  9992
2 40294  55.0193 155.2593 0009801  19.9620 340.1597  2.00568540 21900
GPS BIIF-9  (PRN 26)    
1 40534U 15013A   17300.05948531 -.00000053  00000-0  00000+0 0  9990
2 40534  54.8787 334.3572 0021588 349.0756  10.9295  2.00577906 18979
GPS BIIF-10  (PRN 08)   
1 40730U 15033A   17299.21537822 -.00000074  00000-0  00000+0 0  9995
2 40730  55.4598  34.6029 0029044 319.8019  40.0079  2.00559803 16713
GPS BIIF-11  (PRN 10)   
1 41019U 15062A   17298.77041186  .00000024  00000-0  00000+0 0  9995
2 41019  55.0268 155.0987 0029419 199.1104 160.8625  2.00563987 14528
GPS BIIF-12  (PRN 32)   
1 41328U 16007A   17298.86214191 -.00000012  00000-0  00000+0 0  9994
2 41328  54.8662 214.8361 0016040 218.6192 141.3061  2.00572137 12585
